AUTCUBE 2               
1 43681U 18084K   26068.48152820  .00005282  00000+0  33524-3 0  9991
2 43681  98.0799 269.3640 0009685  28.2406 331.9345 15.09319394401889
STARLINK-3129           
1 49453U 21104AX  26068.68069416 -.00000787  00000+0 -31337-4 0  9999
2 49453  53.2176 219.2491 0001133  81.7118 278.4002 15.08844076238776
